{
  "type": "FeatureCollection",
  "features": [
    {
      "type": "Feature",
      "properties": {
        "norad_id": 66596,
        "name": "STARLINK-35811",
        "group": "last-30-days",
        "lat": -6.2722655623806505,
        "lon": -3.0806744222562417,
        "alt_km": 444.3636782042231,
        "timestamp": "2025-12-16T15:45:49.732145+00:00",
        "meta_object_name": "STARLINK-35811",
        "meta_object_id": "2025-270J",
        "meta_epoch": "2025-12-15T22:00:01.999584",
        "meta_mean_motion": 15.40670125,
        "meta_eccentricity": 0.00020808,
        "meta_inclination": 42.9996,
        "meta_ra_of_asc_node": 174.4118,
        "meta_arg_of_pericenter": 274.5973,
        "meta_mean_anomaly": 124.4379,
        "meta_ephemeris_type": 0,
        "meta_classification_type": "U",
        "meta_norad_cat_id": 66596,
        "meta_element_set_no": 999,
        "meta_rev_at_epoch": 501,
        "meta_bstar": 0.0017944433,
        "meta_mean_motion_dot": 0.00075325,
        "meta_mean_motion_ddot": 0,
        "tle_line1": "1 66596U 25270J   25349.91668981  .00075325  00000+0  17944-2 0  9997",
        "tle_line2": "2 66596  42.9996 174.4118 0002080 274.5973 124.4379 15.40670125  5013"
      },
      "geometry": {
        "type": "Point",
        "coordinates": [
          -3.0806744222562417,
          -6.2722655623806505
        ]
      }
    },
    {
      "type": "Feature",
      "properties": {
        "norad_id": 66597,
        "name": "STARLINK-35820",
        "group": "last-30-days",
        "lat": -35.74223211115814,
        "lon": 40.5881485083577,
        "alt_km": 445.88732576744496,
        "timestamp": "2025-12-16T15:45:49.732155+00:00",
        "meta_object_name": "STARLINK-35820",
        "meta_object_id": "2025-270K",
        "meta_epoch": "2025-12-15T22:00:01.999584",
        "meta_mean_motion": 15.40670042,
        "meta_eccentricity": 0.0001803,
        "meta_inclination": 42.9997,
        "meta_ra_of_asc_node": 174.2909,
        "meta_arg_of_pericenter": 274.5212,
        "meta_mean_anomaly": 174.269,
        "meta_ephemeris_type": 0,
        "meta_classification_type": "U",
        "meta_norad_cat_id": 66597,
        "meta_element_set_no": 999,
        "meta_rev_at_epoch": 501,
        "meta_bstar": 0.0019807215,
        "meta_mean_motion_dot": 0.00083262,
        "meta_mean_motion_ddot": 0,
        "tle_line1": "1 66597U 25270K   25349.91668981  .00083262  00000+0  19807-2 0  9997",
        "tle_line2": "2 66597  42.9997 174.2909 0001803 274.5212 174.2690 15.40670042  5016"
      },
      "geometry": {
        "type": "Point",
        "coordinates": [
          40.5881485083577,
          -35.74223211115814
        ]
      }
    },
    {
      "type": "Feature",
      "properties": {
        "norad_id": 66598,
        "name": "STARLINK-35981",
        "group": "last-30-days",
        "lat": -14.394847564337118,
        "lon": 153.7893114500811,
        "alt_km": 414.985437569263,
        "timestamp": "2025-12-16T15:45:49.732169+00:00",
        "meta_object_name": "STARLINK-35981",
        "meta_object_id": "2025-270L",
        "meta_epoch": "2025-12-15T05:50:49.994016",
        "meta_mean_motion": 15.50578636,
        "meta_eccentricity": 0.00015186,
        "meta_inclination": 42.999,
        "meta_ra_of_asc_node": 178.0473,
        "meta_arg_of_pericenter": 290.6463,
        "meta_mean_anomaly": 69.4235,
        "meta_ephemeris_type": 0,
        "meta_classification_type": "U",
        "meta_norad_cat_id": 66598,
        "meta_element_set_no": 999,
        "meta_rev_at_epoch": 457,
        "meta_bstar": 0.001433442,
        "meta_mean_motion_dot": 0.00084665,
        "meta_mean_motion_ddot": 0,
        "tle_line1": "1 66598U 25270L   25349.24363419  .00084665  00000+0  14334-2 0  9990",
        "tle_line2": "2 66598  42.9990 178.0473 0001518 290.6463  69.4235 15.50578636  4575"
      },
      "geometry": {
        "type": "Point",
        "coordinates": [
          153.7893114500811,
          -14.394847564337118
        ]
      }
    },
    {
      "type": "Feature",
      "properties": {
        "norad_id": 66599,
        "name": "STARLINK-35930",
        "group": "last-30-days",
        "lat": -13.400145863039915,
        "lon": 154.96205107336192,
        "alt_km": 415.8917895633331,
        "timestamp": "2025-12-16T15:45:49.732180+00:00",
        "meta_object_name": "STARLINK-35930",
        "meta_object_id": "2025-270M",
        "meta_epoch": "2025-12-15T21:17:54.430656",
        "meta_mean_motion": 15.50589612,
        "meta_eccentricity": 6.501e-05,
        "meta_inclination": 42.9985,
        "meta_ra_of_asc_node": 174.2775,
        "meta_arg_of_pericenter": 263.4139,
        "meta_mean_anomaly": 96.6648,
        "meta_ephemeris_type": 0,
        "meta_classification_type": "U",
        "meta_norad_cat_id": 66599,
        "meta_element_set_no": 999,
        "meta_rev_at_epoch": 483,
        "meta_bstar": 0.0011625815,
        "meta_mean_motion_dot": 0.00068486,
        "meta_mean_motion_ddot": 0,
        "tle_line1": "1 66599U 25270M   25349.88743554  .00068486  00000+0  11626-2 0  9997",
        "tle_line2": "2 66599  42.9985 174.2775 0000650 263.4139  96.6648 15.50589612  4832"
      },
      "geometry": {
        "type": "Point",
        "coordinates": [
          154.96205107336192,
          -13.400145863039915
        ]
      }
    },
    {
      "type": "Feature",
      "properties": {
        "norad_id": 66600,
        "name": "STARLINK-35980",
        "group": "last-30-days",
        "lat": -12.1229685263117,
        "lon": 156.44284737393286,
        "alt_km": 414.874144259953,
        "timestamp": "2025-12-16T15:45:49.732190+00:00",
        "meta_object_name": "STARLINK-35980",
        "meta_object_id": "2025-270N",
        "meta_epoch": "2025-12-15T21:17:24.400608",
        "meta_mean_motion": 15.50588266,
        "meta_eccentricity": 0.00028106,
        "meta_inclination": 42.9988,
        "meta_ra_of_asc_node": 174.2745,
        "meta_arg_of_pericenter": 279.8877,
        "meta_mean_anomaly": 80.1666,
        "meta_ephemeris_type": 0,
        "meta_classification_type": "U",
        "meta_norad_cat_id": 66600,
        "meta_element_set_no": 999,
        "meta_rev_at_epoch": 473,
        "meta_bstar": 0.0011463137,
        "meta_mean_motion_dot": 0.00067517,
        "meta_mean_motion_ddot": 0,
        "tle_line1": "1 66600U 25270N   25349.88708797  .00067517  00000+0  11463-2 0  9993",
        "tle_line2": "2 66600  42.9988 174.2745 0002810 279.8877  80.1666 15.50588266  4736"
      },
      "geometry": {
        "type": "Point",
        "coordinates": [
          156.44284737393286,
          -12.1229685263117
        ]
      }
    },
    {
      "type": "Feature",
      "properties": {
        "norad_id": 66601,
        "name": "STARLINK-35978",
        "group": "last-30-days",
        "lat": -42.672633566603416,
        "lon": 88.30759800018367,
        "alt_km": 446.3739966614103,
        "timestamp": "2025-12-16T15:45:49.732201+00:00",
        "meta_object_name": "STARLINK-35978",
        "meta_object_id": "2025-270P",
        "meta_epoch": "2025-12-15T22:00:01.999584",
        "meta_mean_motion": 15.40619116,
        "meta_eccentricity": 0.00014239,
        "meta_inclination": 42.9991,
        "meta_ra_of_asc_node": 174.1995,
        "meta_arg_of_pericenter": 250.9063,
        "meta_mean_anomaly": 235.2358,
        "meta_ephemeris_type": 0,
        "meta_classification_type": "U",
        "meta_norad_cat_id": 66601,
        "meta_element_set_no": 999,
        "meta_rev_at_epoch": 475,
        "meta_bstar": 0.0020462453,
        "meta_mean_motion_dot": 0.0008591,
        "meta_mean_motion_ddot": 0,
        "tle_line1": "1 66601U 25270P   25349.91668981  .00085910  00000+0  20462-2 0  9994",
        "tle_line2": "2 66601  42.9991 174.1995 0001423 250.9063 235.2358 15.40619116  4754"
      },
      "geometry": {
        "type": "Point",
        "coordinates": [
          88.30759800018367,
          -42.672633566603416
        ]
      }
    },
    {
      "type": "Feature",
      "properties": {
        "norad_id": 66602,
        "name": "STARLINK-36050",
        "group": "last-30-days",
        "lat": -14.554635874400002,
        "lon": 6.292016396306192,
        "alt_km": 444.857703773092,
        "timestamp": "2025-12-16T15:45:49.732211+00:00",
        "meta_object_name": "STARLINK-36050",
        "meta_object_id": "2025-270Q",
        "meta_epoch": "2025-12-15T22:00:01.999584",
        "meta_mean_motion": 15.40659907,
        "meta_eccentricity": 0.00017679,
        "meta_inclination": 42.9996,
        "meta_ra_of_asc_node": 174.38,
        "meta_arg_of_pericenter": 264.1735,
        "meta_mean_anomaly": 147.3104,
        "meta_ephemeris_type": 0,
        "meta_classification_type": "U",
        "meta_norad_cat_id": 66602,
        "meta_element_set_no": 999,
        "meta_rev_at_epoch": 481,
        "meta_bstar": 0.0016272291,
        "meta_mean_motion_dot": 0.00068189,
        "meta_mean_motion_ddot": 0,
        "tle_line1": "1 66602U 25270Q   25349.91668981  .00068189  00000+0  16272-2 0  9998",
        "tle_line2": "2 66602  42.9996 174.3800 0001767 264.1735 147.3104 15.40659907  4812"
      },
      "geometry": {
        "type": "Point",
        "coordinates": [
          6.292016396306192,
          -14.554635874400002
        ]
      }
    }
  ]
}